{"type": "FeatureCollection", "features": [ {"type": "Feature", "properties": {"norad_id": 35884, "name": "COSMOS 2251 DEB", "group": "cosmos-2251-debris", "lat": -40.265685738845406, "lon": -23.285105866648426, "alt_km": 891.2918598306032, "timestamp": "2025-12-04T13:52:00.838486+00:00", "meta": {"OBJECT_NAME": "COSMOS 2251 DEB", "OBJECT_ID": "1993-036ATX", "EPOCH": "2025-12-01T08:35:40.210656", "MEAN_MOTION": 14.25555603, "ECCENTRICITY": 0.01094526, "INCLINATION": 73.9914, "RA_OF_ASC_NODE": 356.6148, "ARG_OF_PERICENTER": 146.5236, "MEAN_ANOMALY": 214.2894, "EPHEMERIS_TYPE": 0, "CLASSIFICATION_TYPE": "U", "NORAD_CAT_ID": 35884, "ELEMENT_SET_NO": 999, "REV_AT_EPOCH": 22195, "BSTAR": 0.0012758145, "MEAN_MOTION_DOT": 3.19e-05, "MEAN_MOTION_DDOT": 0}, "tle": {"line1": "1 35884U 93036ATX 25335.35810429  .00003190  00000+0  12758-2 0  9996", "line2": "2 35884  73.9914 356.6148 0109452 146.5236 214.2894 14.25555603221959"}}, "geometry": {"type": "Point", "coordinates": [-23.285105866648426, -40.265685738845406]}}, {"type": "Feature", "properties": {"norad_id": 35885, "name": "COSMOS 2251 DEB", "group": "cosmos-2251-debris", "lat": 56.799397320896915, "lon": 103.87083650290481, "alt_km": 760.0682693546314, "timestamp": "2025-12-04T13:52:00.838495+00:00", "meta": {"OBJECT_NAME": "COSMOS 2251 DEB", "OBJECT_ID": "1993-036ATY", "EPOCH": "2025-12-01T06:48:48.094272", "MEAN_MOTION": 14.37483132, "ECCENTRICITY": 0.0022714, "INCLINATION": 74.0277, "RA_OF_ASC_NODE": 315.8881, "ARG_OF_PERICENTER": 39.4634, "MEAN_ANOMALY": 320.8169, "EPHEMERIS_TYPE": 0, "CLASSIFICATION_TYPE": "U", "NORAD_CAT_ID": 35885, "ELEMENT_SET_NO": 999, "REV_AT_EPOCH": 64851, "BSTAR": 0.00036957, "MEAN_MOTION_DOT": 1.083e-05, "MEAN_MOTION_DDOT": 0}, "tle": {"line1": "1 35885U 93036ATY 25335.28388998  .00001083  00000+0  36957-3 0  9997", "line2": "2 35885  74.0277 315.8881 0022714  39.4634 320.8169 14.37483132648516"}}, "geometry": {"type": "Point", "coordinates": [103.87083650290481, 56.799397320896915]}}, {"type": "Feature", "properties": {"norad_id": 35888, "name": "COSMOS 2251 DEB", "group": "cosmos-2251-debris", "lat": -3.1743768102032806, "lon": -166.88547000350044, "alt_km": 674.0260979156092, "timestamp": "2025-12-04T13:52:00.838505+00:00", "meta": {"OBJECT_NAME": "COSMOS 2251 DEB", "OBJECT_ID": "1993-036AUB", "EPOCH": "2025-12-03T20:34:04.412928", "MEAN_MOTION": 14.58269247, "ECCENTRICITY": 0.0048625, "INCLINATION": 74.0341, "RA_OF_ASC_NODE": 13.576, "ARG_OF_PERICENTER": 148.3598, "MEAN_ANOMALY": 212.0506, "EPHEMERIS_TYPE": 0, "CLASSIFICATION_TYPE": "U", "NORAD_CAT_ID": 35888, "ELEMENT_SET_NO": 999, "REV_AT_EPOCH": 86144, "BSTAR": 0.00076242, "MEAN_MOTION_DOT": 3.553e-05, "MEAN_MOTION_DDOT": 0}, "tle": {"line1": "1 35888U 93036AUB 25337.85699552  .00003553  00000+0  76242-3 0  9991", "line2": "2 35888  74.0341  13.5760 0048625 148.3598 212.0506 14.58269247861445"}}, "geometry": {"type": "Point", "coordinates": [-166.88547000350044, -3.1743768102032806]}}, {"type": "Feature", "properties": {"norad_id": 35890, "name": "COSMOS 2251 DEB", "group": "cosmos-2251-debris", "lat": -65.70364637207017, "lon": 117.96409237125975, "alt_km": 734.463462285622, "timestamp": "2025-12-04T13:52:00.838515+00:00", "meta": {"OBJECT_NAME": "COSMOS 2251 DEB", "OBJECT_ID": "1993-036AUD", "EPOCH": "2025-12-04T01:10:55.994880", "MEAN_MOTION": 14.5723152, "ECCENTRICITY": 0.00534651, "INCLINATION": 73.9374, "RA_OF_ASC_NODE": 259.3147, "ARG_OF_PERICENTER": 25.2643, "MEAN_ANOMALY": 335.1117, "EPHEMERIS_TYPE": 0, "CLASSIFICATION_TYPE": "U", "NORAD_CAT_ID": 35890, "ELEMENT_SET_NO": 999, "REV_AT_EPOCH": 65024, "BSTAR": 0.0043241391, "MEAN_MOTION_DOT": 0.00019954, "MEAN_MOTION_DDOT": 0}, "tle": {"line1": "1 35890U 93036AUD 25338.04925920  .00019954  00000+0  43241-2 0  9991", "line2": "2 35890  73.9374 259.3147 0053465  25.2643 335.1117 14.57231520650244"}}, "geometry": {"type": "Point", "coordinates": [117.96409237125975, -65.70364637207017]}}, {"type": "Feature", "properties": {"norad_id": 35891, "name": "COSMOS 2251 DEB", "group": "cosmos-2251-debris", "lat": 73.53441916743236, "lon": -144.95120545169257, "alt_km": 488.52614650963733, "timestamp": "2025-12-04T13:52:00.838525+00:00", "meta": {"OBJECT_NAME": "COSMOS 2251 DEB", "OBJECT_ID": "1993-036AUE", "EPOCH": "2025-12-03T02:58:43.616352", "MEAN_MOTION": 15.32047651, "ECCENTRICITY": 0.00461409, "INCLINATION": 73.9877, "RA_OF_ASC_NODE": 114.4843, "ARG_OF_PERICENTER": 245.3974, "MEAN_ANOMALY": 114.2419, "EPHEMERIS_TYPE": 0, "CLASSIFICATION_TYPE": "U", "NORAD_CAT_ID": 35891, "ELEMENT_SET_NO": 999, "REV_AT_EPOCH": 67073, "BSTAR": 0.0018018227, "MEAN_MOTION_DOT": 0.00058053, "MEAN_MOTION_DDOT": 0}, "tle": {"line1": "1 35891U 93036AUE 25337.12411593  .00058053  00000+0  18018-2 0  9993", "line2": "2 35891  73.9877 114.4843 0046140 245.3974 114.2419 15.32047651670732"}}, "geometry": {"type": "Point", "coordinates": [-144.95120545169257, 73.53441916743236]}}, {"type": "Feature", "properties": {"norad_id": 35895, "name": "COSMOS 2251 DEB", "group": "cosmos-2251-debris", "lat": -53.19624026820226, "lon": -20.652029225773266, "alt_km": 1030.17868198837, "timestamp": "2025-12-04T13:52:00.838535+00:00", "meta": {"OBJECT_NAME": "COSMOS 2251 DEB", "OBJECT_ID": "1993-036AUJ", "EPOCH": "2025-11-28T10:48:22.739616", "MEAN_MOTION": 14.01419981, "ECCENTRICITY": 0.01996382, "INCLINATION": 74.0486, "RA_OF_ASC_NODE": 12.4453, "ARG_OF_PERICENTER": 114.4344, "MEAN_ANOMALY": 247.7763, "EPHEMERIS_TYPE": 0, "CLASSIFICATION_TYPE": "U", "NORAD_CAT_ID": 35895, "ELEMENT_SET_NO": 999, "REV_AT_EPOCH": 58812, "BSTAR": 0.0013219318, "MEAN_MOTION_DOT": 2.352e-05, "MEAN_MOTION_DDOT": 0}, "tle": {"line1": "1 35895U 93036AUJ 25332.45026319  .00002352  00000+0  13219-2 0  9995", "line2": "2 35895  74.0486  12.4453 0199638 114.4344 247.7763 14.01419981588125"}}, "geometry": {"type": "Point", "coordinates": [-20.652029225773266, -53.19624026820226]}}, {"type": "Feature", "properties": {"norad_id": 35898, "name": "COSMOS 2251 DEB", "group": "cosmos-2251-debris", "lat": -42.316879553732385, "lon": -61.20279058452478, "alt_km": 634.7240220762715, "timestamp": "2025-12-04T13:52:00.838545+00:00", "meta": {"OBJECT_NAME": "COSMOS 2251 DEB", "OBJECT_ID": "1993-036AUM", "EPOCH": "2025-12-04T04:28:31.920384", "MEAN_MOTION": 14.94490528, "ECCENTRICITY": 0.00791912, "INCLINATION": 73.9907, "RA_OF_ASC_NODE": 314.7414, "ARG_OF_PERICENTER": 100.6329, "MEAN_ANOMALY": 271.1161, "EPHEMERIS_TYPE": 0, "CLASSIFICATION_TYPE": "U", "NORAD_CAT_ID": 35898, "ELEMENT_SET_NO": 999, "REV_AT_EPOCH": 66682, "BSTAR": 0.0012849069, "MEAN_MOTION_DOT": 0.00014754, "MEAN_MOTION_DDOT": 0}, "tle": {"line1": "1 35898U 93036AUM 25338.18648056  .00014754  00000+0  12849-2 0  9999", "line2": "2 35898  73.9907 314.7414 0079191 100.6329 271.1161 14.94490528666825"}}, "geometry": {"type": "Point", "coordinates": [-61.20279058452478, -42.316879553732385]}}, {"type": "Feature", "properties": {"norad_id": 35901, "name": "COSMOS 2251 DEB", "group": "cosmos-2251-debris", "lat": -27.92412411438966, "lon": 30.910428276533338, "alt_km": 550.8718726564184, "timestamp": "2025-12-04T13:52:00.838555+00:00", "meta": {"OBJECT_NAME": "COSMOS 2251 DEB", "OBJECT_ID": "1993-036AUQ", "EPOCH": "2025-12-03T22:49:43.592736", "MEAN_MOTION": 15.05748254, "ECCENTRICITY": 0.00060853, "INCLINATION": 74.0126, "RA_OF_ASC_NODE": 40.937, "ARG_OF_PERICENTER": 7.4259, "MEAN_ANOMALY": 168.3379, "EPHEMERIS_TYPE": 0, "CLASSIFICATION_TYPE": "U", "NORAD_CAT_ID": 35901, "ELEMENT_SET_NO": 999, "REV_AT_EPOCH": 85994, "BSTAR": 0.0067795544, "MEAN_MOTION_DOT": 0.00099573, "MEAN_MOTION_DDOT": 0}, "tle": {"line1": "1 35901U 93036AUQ 25337.95119899  .00099573  00000+0  67796-2 0  9999", "line2": "2 35901  74.0126  40.9370 0006085   7.4259 168.3379 15.05748254859942"}}, "geometry": {"type": "Point", "coordinates": [30.910428276533338, -27.92412411438966]}}, {"type": "Feature", "properties": {"norad_id": 35902, "name": "COSMOS 2251 DEB", "group": "cosmos-2251-debris", "lat": 68.40260245391762, "lon": -64.08541017948266, "alt_km": 769.4832959022633, "timestamp": "2025-12-04T13:52:00.838565+00:00", "meta": {"OBJECT_NAME": "COSMOS 2251 DEB", "OBJECT_ID": "1993-036AUR", "EPOCH": "2025-12-01T03:04:00.207552", "MEAN_MOTION": 14.26791124, "ECCENTRICITY": 0.01016301, "INCLINATION": 73.9836, "RA_OF_ASC_NODE": 255.6555, "ARG_OF_PERICENTER": 12.6385, "MEAN_ANOMALY": 347.7274, "EPHEMERIS_TYPE": 0, "CLASSIFICATION_TYPE": "U", "NORAD_CAT_ID": 35902, "ELEMENT_SET_NO": 999, "REV_AT_EPOCH": 60964, "BSTAR": 0.0014097892, "MEAN_MOTION_DOT": 3.584e-05, "MEAN_MOTION_DDOT": 0}, "tle": {"line1": "1 35902U 93036AUR 25335.12778018  .00003584  00000+0  14098-2 0  9995", "line2": "2 35902  73.9836 255.6555 0101630  12.6385 347.7274 14.26791124609642"}}, "geometry": {"type": "Point", "coordinates": [-64.08541017948266, 68.40260245391762]}}, {"type": "Feature", "properties": {"norad_id": 35905, "name": "COSMOS 2251 DEB", "group": "cosmos-2251-debris", "lat": 66.50595028310393, "lon": -91.41990998258663, "alt_km": 597.8995221236164, "timestamp": "2025-12-04T13:52:00.838575+00:00", "meta": {"OBJECT_NAME": "COSMOS 2251 DEB", "OBJECT_ID": "1993-036AUU", "EPOCH": "2025-12-03T23:07:38.819136", "MEAN_MOTION": 14.98817132, "ECCENTRICITY": 0.00910194, "INCLINATION": 74.0324, "RA_OF_ASC_NODE": 228.6251, "ARG_OF_PERICENTER": 310.7702, "MEAN_ANOMALY": 48.561, "EPHEMERIS_TYPE": 0, "CLASSIFICATION_TYPE": "U", "NORAD_CAT_ID": 35905, "ELEMENT_SET_NO": 999, "REV_AT_EPOCH": 88451, "BSTAR": 0.0011414912, "MEAN_MOTION_DOT": 0.00015, "MEAN_MOTION_DDOT": 0}, "tle": {"line1": "1 35905U 93036AUU 25337.96364374  .00015000  00000+0  11415-2 0  9994", "line2": "2 35905  74.0324 228.6251 0091019 310.7702  48.5610 14.98817132884514"}}, "geometry": {"type": "Point", "coordinates": [-91.41990998258663, 66.50595028310393]}}]}